$$SOE
2461295.500000000, A.D. 2026-Sep-12 00:00:00.0000, -4.866916838793744E+07, 4.501127363014523E+08, -3.011110451402608E+07,
2461302.500000000, A.D. 2026-Sep-19 00:00:00.0000, -5.667422422075651E+07, 4.483184378785994E+08, -3.131155115301406E+07,
2461309.500000000, A.D. 2026-Sep-26 00:00:00.0000, -6.464982836988583E+07, 4.462899893683552E+08, -3.249562628348786E+07,
2461316.500000000, A.D. 2026-Oct-03 00:00:00.0000, -7.259162620380265E+07, 4.440271273998395E+08, -3.366261429770812E+07,
2461323.500000000, A.D. 2026-Oct-10 00:00:00.0000, -8.049520973352708E+07, 4.415295803840450E+08, -3.481179071237926E+07,
2461330.500000000, A.D. 2026-Oct-17 00:00:00.0000, -8.835611198132251E+07, 4.387970697500899E+08, -3.594242130810013E+07,
2461337.500000000, A.D. 2026-Oct-24 00:00:00.0000, -9.616980120065491E+07, 4.358293112507234E+08, -3.705376125910148E+07,
2461344.500000000, A.D. 2026-Oct-31 00:00:00.0000, -1.039316748328808E+08, 4.326260162835159E+08, -3.814505426572958E+07,
2461351.500000000, A.D. 2026-Nov-07 00:00:00.0000, -1.116370528455419E+08, 4.291868933167106E+08, -3.921553171264178E+07,
2461358.500000000, A.D. 2026-Nov-14 00:00:00.0000, -1.192811702351732E+08, 4.255116503246832E+08, -4.026441179668564E+07,
2461365.500000000, A.D. 2026-Nov-21 00:00:00.0000, -1.268591704888590E+08, 4.215999989359757E+08, -4.129089840104471E+07,
2461372.500000000, A.D. 2026-Nov-28 00:00:00.0000, -1.343661009819463E+08, 4.174516573072100E+08, -4.229417986799186E+07,
2461379.500000000, A.D. 2026-Dec-05 00:00:00.0000, -1.417969066725336E+08, 4.130663510872825E+08, -4.327342805303794E+07,
2461386.500000000, A.D. 2026-Dec-12 00:00:00.0000, -1.491464219089281E+08, 4.084438156100751E+08, -4.422779741946721E+07,
2461393.500000000, A.D. 2026-Dec-19 00:00:00.0000, -1.564093622146789E+08, 4.035837993521916E+08, -4.515642399776708E+07,
2461400.500000000, A.D. 2026-Dec-26 00:00:00.0000, -1.635803161704866E+08, 3.984860678175415E+08, -4.605842426504026E+07,
2461407.500000000, A.D. 2027-Jan-02 00:00:00.0000, -1.706537370959914E+08, 3.931504076915224E+08, -4.693289398258018E+07,
2461414.500000000, A.D. 2027-Jan-09 00:00:00.0000, -1.776239343941468E+08, 3.875766313250027E+08, -4.777890699869202E+07,
2461421.500000000, A.D. 2027-Jan-16 00:00:00.0000, -1.844850645016321E+08, 3.817645816034186E+08, -4.859551401798411E+07,
2461428.500000000, A.D. 2027-Jan-23 00:00:00.0000, -1.912311213764687E+08, 3.757141372131702E+08, -4.938174134356438E+07,
2461435.500000000, A.D. 2027-Jan-30 00:00:00.0000, -1.978559263112240E+08, 3.694252183139138E+08, -5.013658961218339E+07,
2461442.500000000, A.D. 2027-Feb-06 00:00:00.0000, -2.043531166234949E+08, 3.628977930183979E+08, -5.085903253243461E+07,
2461449.500000000, A.D. 2027-Feb-13 00:00:00.0000, -2.107161336619443E+08, 3.561318859688612E+08, -5.154801548370512E+07,
2461456.500000000, A.D. 2027-Feb-20 00:00:00.0000, -2.169382124698143E+08, 3.491275882988856E+08, -5.220245382451211E+07,
2461463.500000000, A.D. 2027-Feb-27 00:00:00.0000, -2.230123716847931E+08, 3.418850658543099E+08, -5.282123130139294E+07,
2461470.500000000, A.D. 2027-Mar-06 00:00:00.0000, -2.289314006344532E+08, 3.344045676897296E+08, -5.340319867827855E+07,
2461477.500000000, A.D. 2027-Mar-13 00:00:00.0000, -2.346878452094256E+08, 3.266864369998623E+08, -5.394717227493235E+07,
2461484.500000000, A.D. 2027-Mar-20 00:00:00.0000, -2.402739936245918E+08, 3.187311237750145E+08, -5.445193238303730E+07,
2461491.500000000, A.D. 2027-Mar-27 00:00:00.0000, -2.456818618488441E+08, 3.105391987668161E+08, -5.491622162743187E+07,
2461498.500000000, A.D. 2027-Apr-03 00:00:00.0000, -2.509031784881729E+08, 3.021113688662755E+08, -5.533874330035891E+07,
2461505.500000000, A.D. 2027-Apr-10 00:00:00.0000, -2.559293690547265E+08, 2.934484940845435E+08, -5.571815967966324E+07,
2461512.500000000, A.D. 2027-Apr-17 00:00:00.0000, -2.607515396011997E+08, 2.845516063088800E+08, -5.605309034351423E+07,
2461519.500000000, A.D. 2027-Apr-24 00:00:00.0000, -2.653604596522529E+08, 2.754219299799311E+08, -5.634211050594136E+07,
2461526.500000000, A.D. 2027-May-01 00:00:00.0000, -2.697465441561888E+08, 2.660609049499593E+08, -5.658374941334970E+07,
2461533.500000000, A.D. 2027-May-08 00:00:00.0000, -2.738998341877680E+08, 2.564702125280747E+08, -5.677648878767594E+07,
2461540.500000000, A.D. 2027-May-15 00:00:00.0000, -2.778099779579530E+08, 2.466518059529786E+08, -5.691876112465551E+07,
2461547.500000000, A.D. 2027-May-22 00:00:00.0000, -2.814662137771696E+08, 2.366079430233187E+08, -5.700894794557359E+07,
2461554.500000000, A.D. 2027-May-29 00:00:00.0000, -2.848573517222457E+08, 2.263412197719019E+08, -5.704537846472027E+07,
2461561.500000000, A.D. 2027-Jun-05 00:00:00.0000, -2.879717532651994E+08, 2.158546087010767E+08, -5.702632853824989E+07,
2461568.500000000, A.D. 2027-Jun-12 00:00:00.0000, -2.907973110651722E+08, 2.051515024403359E+08, -5.695001972749738E+07,
2461575.500000000, A.D. 2027-Jun-19 00:00:00.0000, -2.933214294999243E+08, 1.942357623667245E+08, -5.681461858655427E+07,
2461582.500000000, A.D. 2027-Jun-26 00:00:00.0000, -2.955310059655225E+08, 1.831117724447365E+08, -5.661823629619455E+07,
2461589.500000000, A.D. 2027-Jul-03 00:00:00.0000, -2.974124131999058E+08, 1.717844988560401E+08, -5.635892874541658E+07,
2461596.500000000, A.D. 2027-Jul-10 00:00:00.0000, -2.989514830780506E+08, 1.602595560351120E+08, -5.603469717099635E+07,
2461603.500000000, A.D. 2027-Jul-17 00:00:00.0000, -3.001334924430169E+08, 1.485432797229091E+08, -5.564348949023506E+07,
2461610.500000000, A.D. 2027-Jul-24 00:00:00.0000, -3.009431515561420E+08, 1.366428076658806E+08, -5.518320249947660E+07,
2461617.500000000, A.D. 2027-Jul-31 00:00:00.0000, -3.013645956606227E+08, 1.245661689169831E+08, -5.465168513835552E+07,
2461624.500000000, A.D. 2027-Aug-07 00:00:00.0000, -3.013813809626496E+08, 1.123223836296067E+08, -5.404674292174993E+07,
2461631.500000000, A.D. 2027-Aug-14 00:00:00.0000, -3.009764886712688E+08, 9.992157383045886E+07, -5.336614360287185E+07,
2461638.500000000, A.D. 2027-Aug-21 00:00:00.0000, -3.001323380956607E+08, 8.737508252523029E+07, -5.260762469801353E+07,
2461645.500000000, A.D. 2027-Aug-28 00:00:00.0000, -2.988308072931985E+08, 7.469560299833858E+07, -5.176890343237929E+07,
2461652.500000000, A.D. 2027-Sep-04 00:00:00.0000, -2.970532647280054E+08, 6.189732134136029E+07, -5.084768918333845E+07,
2461659.500000000, A.D. 2027-Sep-11 00:00:00.0000, -2.947806160353910E+08, 4.899607188494018E+07, -4.984169879388817E+07,
2461666.500000000, A.D. 2027-Sep-18 00:00:00.0000, -2.919933689325845E+08, 3.600950493818843E+07, -4.874867533169016E+07,
2461673.500000000, A.D. 2027-Sep-25 00:00:00.0000, -2.886717197402959E+08, 2.295726641074171E+07, -4.756641089711206E+07,
2461680.500000000, A.D. 2027-Oct-02 00:00:00.0000, -2.847956656918150E+08, 9.861188451119341E+06, -4.629277412782732E+07,
2461687.500000000, A.D. 2027-Oct-09 00:00:00.0000, -2.803451478275203E+08, -3.254510527234126E+06, -4.492574310228938E+07,
2461694.500000000, A.D. 2027-Oct-16 00:00:00.0000, -2.753002297775161E+08, -1.636301907591704E+07, -4.346344439023075E+07,
2461701.500000000, A.D. 2027-Oct-23 00:00:00.0000, -2.696413180186374E+08, -2.943472303850435E+07, -4.190419902486359E+07,
2461708.500000000, A.D. 2027-Oct-30 00:00:00.0000, -2.633494294250616E+08, -4.243699776726185E+07, -4.024657610788022E+07,
2461715.500000000, A.D. 2027-Nov-06 00:00:00.0000, -2.564065135869751E+08, -5.533400842751002E+07, -3.848945449779600E+07,
2461722.500000000, A.D. 2027-Nov-13 00:00:00.0000, -2.487958379535937E+08, -6.808653008903851E+07, -3.663209306741504E+07,
2461729.500000000, A.D. 2027-Nov-20 00:00:00.0000, -2.405024382094038E+08, -8.065180206720442E+07, -3.467421022160733E+07,
2461736.500000000, A.D. 2027-Nov-27 00:00:00.0000, -2.315136360806245E+08, -9.298342876486194E+07, -3.261607243977274E+07,
2461743.500000000, A.D. 2027-Dec-04 00:00:00.0000, -2.218196279424989E+08, -1.050313444102479E+08, -3.045859088602632E+07,
2461750.500000000, A.D. 2027-Dec-11 00:00:00.0000, -2.114141424679061E+08, -1.167418639827698E+08, -2.820342468088159E+07,
2461757.500000000, A.D. 2027-Dec-18 00:00:00.0000, -2.002951596943029E+08, -1.280578445555598E+08, -2.585308852119909E+07,
2461764.500000000, A.D. 2027-Dec-25 00:00:00.0000, -1.884656774465751E+08, -1.389189825094555E+08, -2.341106116442688E+07,
2461771.500000000, A.D. 2028-Jan-01 00:00:00.0000, -1.759345030870287E+08, -1.492622719589688E+08, -2.088188998390303E+07,
$$EOE